{"type": "FeatureCollection", "features": [ {"type": "Feature", "properties": {"norad_id": 41836, "name": "HIMAWARI-9", "group": "weather", "lat": 0.010529576429324887, "lon": 104.81098159509607, "alt_km": 35791.025303808085, "timestamp": "2025-12-17T15:50:09.419474+00:00", "meta": {"OBJECT_NAME": "HIMAWARI-9", "OBJECT_ID": "2016-064A", "EPOCH": "2025-12-16T14:01:33.494016", "MEAN_MOTION": 1.00269191, "ECCENTRICITY": 9.983e-05, "INCLINATION": 0.0171, "RA_OF_ASC_NODE": 275.3759, "ARG_OF_PERICENTER": 22.8561, "MEAN_ANOMALY": 138.3893, "EPHEMERIS_TYPE": 0, "CLASSIFICATION_TYPE": "U", "NORAD_CAT_ID": 41836, "ELEMENT_SET_NO": 999, "REV_AT_EPOCH": 3337, "BSTAR": 0, "MEAN_MOTION_DOT": -2.51e-06, "MEAN_MOTION_DDOT": 0}, "tle": {"line1": "1 41836U 16064A   25350.58441544 -.00000251  00000+0  00000+0 0  9996", "line2": "2 41836   0.0171 275.3759 0000998  22.8561 138.3893  1.00269191 33371"}}, "geometry": {"type": "Point", "coordinates": [104.81098159509607, 0.010529576429324887]}}, {"type": "Feature", "properties": {"norad_id": 41866, "name": "GOES 16", "group": "weather", "lat": 0.038269752800184555, "lon": -140.63991319931372, "alt_km": 35776.978562572614, "timestamp": "2025-12-17T15:50:09.419486+00:00", "meta": {"OBJECT_NAME": "GOES 16", "OBJECT_ID": "2016-071A", "EPOCH": "2025-12-16T23:07:52.980960", "MEAN_MOTION": 1.00271853, "ECCENTRICITY": 0.00030505, "INCLINATION": 0.0736, "RA_OF_ASC_NODE": 102.337, "ARG_OF_PERICENTER": 162.4144, "MEAN_ANOMALY": 63.3907, "EPHEMERIS_TYPE": 0, "CLASSIFICATION_TYPE": "U", "NORAD_CAT_ID": 41866, "ELEMENT_SET_NO": 999, "REV_AT_EPOCH": 3327, "BSTAR": 0, "MEAN_MOTION_DOT": -6.7e-07, "MEAN_MOTION_DDOT": 0}, "tle": {"line1": "1 41866U 16071A   25350.96380765 -.00000067  00000+0  00000+0 0  9991", "line2": "2 41866   0.0736 102.3370 0003050 162.4144  63.3907  1.00271853 33279"}}, "geometry": {"type": "Point", "coordinates": [-140.63991319931372, 0.038269752800184555]}}, {"type": "Feature", "properties": {"norad_id": 41882, "name": "FENGYUN 4A", "group": "weather", "lat": 0.20307469027257402, "lon": 87.80425541584749, "alt_km": 35801.640747112535, "timestamp": "2025-12-17T15:50:09.419499+00:00", "meta": {"OBJECT_NAME": "FENGYUN 4A", "OBJECT_ID": "2016-077A", "EPOCH": "2025-12-17T05:21:15.895296", "MEAN_MOTION": 1.00267787, "ECCENTRICITY": 0.00045456, "INCLINATION": 1.8605, "RA_OF_ASC_NODE": 82.349, "ARG_OF_PERICENTER": 143.7539, "MEAN_ANOMALY": 64.1017, "EPHEMERIS_TYPE": 0, "CLASSIFICATION_TYPE": "U", "NORAD_CAT_ID": 41882, "ELEMENT_SET_NO": 999, "REV_AT_EPOCH": 3310, "BSTAR": 0, "MEAN_MOTION_DOT": -3.34e-06, "MEAN_MOTION_DDOT": 0}, "tle": {"line1": "1 41882U 16077A   25351.22310064 -.00000334  00000+0  00000+0 0  9997", "line2": "2 41882   1.8605  82.3490 0004545 143.7539  64.1017  1.00267787 33105"}}, "geometry": {"type": "Point", "coordinates": [87.80425541584749, 0.20307469027257402]}}, {"type": "Feature", "properties": {"norad_id": 41884, "name": "CYGFM05", "group": "weather", "lat": 34.01457444729893, "lon": 119.9881721734851, "alt_km": 420.9716000513499, "timestamp": "2025-12-17T15:50:09.419511+00:00", "meta": {"OBJECT_NAME": "CYGFM05", "OBJECT_ID": "2016-078A", "EPOCH": "2025-12-17T06:06:26.856864", "MEAN_MOTION": 15.47802773, "ECCENTRICITY": 0.00106373, "INCLINATION": 34.9607, "RA_OF_ASC_NODE": 17.6362, "ARG_OF_PERICENTER": 223.7116, "MEAN_ANOMALY": 136.2764, "EPHEMERIS_TYPE": 0, "CLASSIFICATION_TYPE": "U", "NORAD_CAT_ID": 41884, "ELEMENT_SET_NO": 999, "REV_AT_EPOCH": 50046, "BSTAR": 0.00030370031, "MEAN_MOTION_DOT": 0.00016271, "MEAN_MOTION_DDOT": 0}, "tle": {"line1": "1 41884U 16078A   25351.25447751  .00016271  00000+0  30370-3 0  9990", "line2": "2 41884  34.9607  17.6362 0010637 223.7116 136.2764 15.47802773500468"}}, "geometry": {"type": "Point", "coordinates": [119.9881721734851, 34.01457444729893]}}, {"type": "Feature", "properties": {"norad_id": 41885, "name": "CYGFM04", "group": "weather", "lat": 16.886561778236516, "lon": 15.399795424336759, "alt_km": 416.4401349732434, "timestamp": "2025-12-17T15:50:09.419522+00:00", "meta": {"OBJECT_NAME": "CYGFM04", "OBJECT_ID": "2016-078B", "EPOCH": "2025-12-17T07:58:43.992768", "MEAN_MOTION": 15.50550337, "ECCENTRICITY": 0.00097845, "INCLINATION": 34.9357, "RA_OF_ASC_NODE": 351.7702, "ARG_OF_PERICENTER": 249.677, "MEAN_ANOMALY": 110.2901, "EPHEMERIS_TYPE": 0, "CLASSIFICATION_TYPE": "U", "NORAD_CAT_ID": 41885, "ELEMENT_SET_NO": 999, "REV_AT_EPOCH": 50065, "BSTAR": 0.00032656657, "MEAN_MOTION_DOT": 0.00019288, "MEAN_MOTION_DDOT": 0}, "tle": {"line1": "1 41885U 16078B   25351.33245362  .00019288  00000+0  32657-3 0  9995", "line2": "2 41885  34.9357 351.7702 0009784 249.6770 110.2901 15.50550337500651"}}, "geometry": {"type": "Point", "coordinates": [15.399795424336759, 16.886561778236516]}}, {"type": "Feature", "properties": {"norad_id": 41886, "name": "CYGFM02", "group": "weather", "lat": 32.098887860386775, "lon": 51.823285668843646, "alt_km": 412.7476963198351, "timestamp": "2025-12-17T15:50:09.419533+00:00", "meta": {"OBJECT_NAME": "CYGFM02", "OBJECT_ID": "2016-078C", "EPOCH": "2025-12-17T07:49:27.396192", "MEAN_MOTION": 15.51943458, "ECCENTRICITY": 0.00114443, "INCLINATION": 34.9445, "RA_OF_ASC_NODE": 350.0791, "ARG_OF_PERICENTER": 249.9662, "MEAN_ANOMALY": 109.9829, "EPHEMERIS_TYPE": 0, "CLASSIFICATION_TYPE": "U", "NORAD_CAT_ID": 41886, "ELEMENT_SET_NO": 999, "REV_AT_EPOCH": 50078, "BSTAR": 0.00033418453, "MEAN_MOTION_DOT": 0.00020771, "MEAN_MOTION_DDOT": 0}, "tle": {"line1": "1 41886U 16078C   25351.32601153  .00020771  00000+0  33418-3 0  9994", "line2": "2 41886  34.9445 350.0791 0011444 249.9662 109.9829 15.51943458500788"}}, "geometry": {"type": "Point", "coordinates": [51.823285668843646, 32.098887860386775]}}, {"type": "Feature", "properties": {"norad_id": 41887, "name": "CYGFM01", "group": "weather", "lat": 12.909437565698248, "lon": 178.13990389960637, "alt_km": 415.30174372881265, "timestamp": "2025-12-17T15:50:09.419544+00:00", "meta": {"OBJECT_NAME": "CYGFM01", "OBJECT_ID": "2016-078D", "EPOCH": "2025-12-17T05:52:35.570496", "MEAN_MOTION": 15.48387033, "ECCENTRICITY": 0.00102034, "INCLINATION": 34.9438, "RA_OF_ASC_NODE": 20.0171, "ARG_OF_PERICENTER": 215.9892, "MEAN_ANOMALY": 144.0143, "EPHEMERIS_TYPE": 0, "CLASSIFICATION_TYPE": "U", "NORAD_CAT_ID": 41887, "ELEMENT_SET_NO": 999, "REV_AT_EPOCH": 50040, "BSTAR": 0.00030197247, "MEAN_MOTION_DOT": 0.00016512, "MEAN_MOTION_DDOT": 0}, "tle": {"line1": "1 41887U 16078D   25351.24485614  .00016512  00000+0  30197-3 0  9997", "line2": "2 41887  34.9438  20.0171 0010203 215.9892 144.0143 15.48387033500402"}}, "geometry": {"type": "Point", "coordinates": [178.13990389960637, 12.909437565698248]}}, {"type": "Feature", "properties": {"norad_id": 41888, "name": "CYGFM08", "group": "weather", "lat": -24.76139712775035, "lon": -138.42432839931956, "alt_km": 411.4816036641623, "timestamp": "2025-12-17T15:50:09.419555+00:00", "meta": {"OBJECT_NAME": "CYGFM08", "OBJECT_ID": "2016-078E", "EPOCH": "2025-12-17T07:07:47.966880", "MEAN_MOTION": 15.49604831, "ECCENTRICITY": 0.00119484, "INCLINATION": 34.9467, "RA_OF_ASC_NODE": 2.614, "ARG_OF_PERICENTER": 239.2162, "MEAN_ANOMALY": 120.7384, "EPHEMERIS_TYPE": 0, "CLASSIFICATION_TYPE": "U", "NORAD_CAT_ID": 41888, "ELEMENT_SET_NO": 999, "REV_AT_EPOCH": 50064, "BSTAR": 0.00031910171, "MEAN_MOTION_DOT": 0.00018237, "MEAN_MOTION_DDOT": 0}, "tle": {"line1": "1 41888U 16078E   25351.29708295  .00018237  00000+0  31910-3 0  9996", "line2": "2 41888  34.9467   2.6140 0011948 239.2162 120.7384 15.49604831500646"}}, "geometry": {"type": "Point", "coordinates": [-138.42432839931956, -24.76139712775035]}}, {"type": "Feature", "properties": {"norad_id": 41890, "name": "CYGFM07", "group": "weather", "lat": -23.923119345434525, "lon": -151.37333905478204, "alt_km": 411.73263386981307, "timestamp": "2025-12-17T15:50:09.419566+00:00", "meta": {"OBJECT_NAME": "CYGFM07", "OBJECT_ID": "2016-078G", "EPOCH": "2025-12-17T07:08:29.320512", "MEAN_MOTION": 15.50191785, "ECCENTRICITY": 0.00101434, "INCLINATION": 34.9485, "RA_OF_ASC_NODE": 351.5658, "ARG_OF_PERICENTER": 254.5599, "MEAN_ANOMALY": 105.4003, "EPHEMERIS_TYPE": 0, "CLASSIFICATION_TYPE": "U", "NORAD_CAT_ID": 41890, "ELEMENT_SET_NO": 999, "REV_AT_EPOCH": 50066, "BSTAR": 0.00032148884, "MEAN_MOTION_DOT": 0.00018747, "MEAN_MOTION_DDOT": 0}, "tle": {"line1": "1 41890U 16078G   25351.29756158  .00018747  00000+0  32149-3 0  9991", "line2": "2 41890  34.9485 351.5658 0010143 254.5599 105.4003 15.50191785500660"}}, "geometry": {"type": "Point", "coordinates": [-151.37333905478204, -23.923119345434525]}}, {"type": "Feature", "properties": {"norad_id": 41891, "name": "CYGFM03", "group": "weather", "lat": 29.044983104728544, "lon": 43.79765177484069, "alt_km": 417.418093495482, "timestamp": "2025-12-17T15:50:09.419578+00:00", "meta": {"OBJECT_NAME": "CYGFM03", "OBJECT_ID": "2016-078H", "EPOCH": "2025-12-17T07:51:30.021120", "MEAN_MOTION": 15.50089857, "ECCENTRICITY": 0.00096605, "INCLINATION": 34.9439, "RA_OF_ASC_NODE": 353.2914, "ARG_OF_PERICENTER": 242.9368, "MEAN_ANOMALY": 117.0368, "EPHEMERIS_TYPE": 0, "CLASSIFICATION_TYPE": "U", "NORAD_CAT_ID": 41891, "ELEMENT_SET_NO": 999, "REV_AT_EPOCH": 50064, "BSTAR": 0.00032066252, "MEAN_MOTION_DOT": 0.00018627, "MEAN_MOTION_DDOT": 0}, "tle": {"line1": "1 41891U 16078H   25351.32743080  .00018627  00000+0  32066-3 0  9991", "line2": "2 41891  34.9439 353.2914 0009660 242.9368 117.0368 15.50089857500648"}}, "geometry": {"type": "Point", "coordinates": [43.79765177484069, 29.044983104728544]}}]}